ONEWEB-0403             
1 50483U 21132Q   26110.07212086  .00000240  00000+0  57592-3 0  9991
2 50483  87.9217 347.0112 0001666  84.2677 275.8645 13.18686330213931
ONEWEB-0404             
1 50484U 21132R   26110.19336265 -.00000420  00000+0 -12199-2 0  9996
2 50484  87.8918  32.5960 0001576  84.9019 275.2289 13.11416704208091
ONEWEB-0405             
1 50485U 21132S   26110.08695904  .00000127  00000+0  29049-3 0  9998
2 50485  87.9215 346.9923 0001529  65.4143 294.7149 13.18684242214330
ONEWEB-0406             
1 50486U 21132T   26110.07707350  .00000204  00000+0  48365-3 0  9995
2 50486  87.9208 347.0158 0001355  98.0372 262.0914 13.18688368213967
ONEWEB-0407             
1 50487U 21132U   26110.07046754  .00000193  00000+0  45750-3 0  9992
2 50487  87.9220 347.0046 0001965  79.4945 280.6409 13.18685678213904
ONEWEB-0409             
1 50488U 21132V   26110.19166786 -.00000482  00000+0 -13963-2 0  9997
2 50488  87.8925  32.5807 0001566  80.8105 279.3200 13.11416426207989
ONEWEB-0412             
1 50489U 21132W   26110.13479942  .00000096  00000+0  21075-3 0  9996
2 50489  87.9206 347.0026 0002065  86.1039 274.0330 13.18685103214004
ONEWEB-0413             
1 50490U 21132X   26110.06387435  .00000117  00000+0  26461-3 0  9993
2 50490  87.9203 347.0191 0002078  82.5609 277.5759 13.18685016213930
ONEWEB-0414             
1 50491U 21132Y   26110.20078253  .00000124  00000+0  28300-3 0  9997
2 50491  87.9214 346.9679 0001901  86.7628 273.3721 13.18684906213988
ONEWEB-0417             
1 50492U 21132Z   26110.13314941  .00000022  00000+0  24063-4 0  9997
2 50492  87.9204 347.0062 0001611  86.5387 273.5929 13.18684201213951
ONEWEB-0418             
1 50493U 21132AA  26110.06702414 -.00000211  00000+0 -56854-3 0  9990
2 50493  87.9219 347.0131 0001436  90.0082 270.1215 13.18685902214009
ONEWEB-0419             
1 50494U 21132AB  26110.08530016  .00000027  00000+0  36418-4 0  9998
2 50494  87.9219 347.0093 0001505  78.0215 282.1086 13.18686313213924
ONEWEB-0420             
1 50495U 21132AC  26110.20242002  .00000012  00000+0 -26071-5 0  9998
2 50495  87.9213 346.9943 0001958  77.7552 282.3800 13.18684841213934
ONEWEB-0421             
1 50496U 21132AD  26110.19583810  .00000032  00000+0  48274-4 0  9991
2 50496  87.9214 346.9906 0001927  92.9169 267.2184 13.18685414213972
ONEWEB-0424             
1 50497U 21132AE  26110.08036284  .00000257  00000+0  61860-3 0  9992
2 50497  87.9217 347.0094 0001522  73.0023 287.1276 13.18687703213983
ONEWEB-0426             
1 50498U 21132AF  26110.19248837  .00000080  00000+0  17085-3 0  9998
2 50498  87.9214 346.9791 0001726 106.4245 253.7077 13.18690283213947
