[{"OBJECT_NAME":"ONEWEB-0403","OBJECT_ID":"2021-132Q","EPOCH":"2026-04-20T01:43:51.242304","MEAN_MOTION":13.1868633,"ECCENTRICITY":0.0001666,"INCLINATION":87.9217,"RA_OF_ASC_NODE":347.0112,"ARG_OF_PERICENTER":84.2677,"MEAN_ANOMALY":275.8645,"EPHEMERIS_TYPE":0,"CLASSIFICATION_TYPE":"U","NORAD_CAT_ID":50483,"ELEMENT_SET_NO":999,"REV_AT_EPOCH":21393,"BSTAR":0.00057592,"MEAN_MOTION_DOT":2.4e-06,"MEAN_MOTION_DDOT":0.0},{"OBJECT_NAME":"ONEWEB-0404","OBJECT_ID":"2021-132R","EPOCH":"2026-04-20T04:38:26.532960","MEAN_MOTION":13.11416704,"ECCENTRICITY":0.0001576,"INCLINATION":87.8918,"RA_OF_ASC_NODE":32.596,"ARG_OF_PERICENTER":84.9019,"MEAN_ANOMALY":275.2289,"EPHEMERIS_TYPE":0,"CLASSIFICATION_TYPE":"U","NORAD_CAT_ID":50484,"ELEMENT_SET_NO":999,"REV_AT_EPOCH":20809,"BSTAR":-0.0012199,"MEAN_MOTION_DOT":-4.2e-06,"MEAN_MOTION_DDOT":0.0},{"OBJECT_NAME":"ONEWEB-0405","OBJECT_ID":"2021-132S","EPOCH":"2026-04-20T02:05:13.261056","MEAN_MOTION":13.18684242,"ECCENTRICITY":0.0001529,"INCLINATION":87.9215,"RA_OF_ASC_NODE":346.9923,"ARG_OF_PERICENTER":65.4143,"MEAN_ANOMALY":294.7149,"EPHEMERIS_TYPE":0,"CLASSIFICATION_TYPE":"U","NORAD_CAT_ID":50485,"ELEMENT_SET_NO":999,"REV_AT_EPOCH":21433,"BSTAR":0.00029049,"MEAN_MOTION_DOT":1.27e-06,"MEAN_MOTION_DDOT":0.0},{"OBJECT_NAME":"ONEWEB-0406","OBJECT_ID":"2021-132T","EPOCH":"2026-04-20T01:50:59.150400","MEAN_MOTION":13.18688368,"ECCENTRICITY":0.0001355,"INCLINATION":87.9208,"RA_OF_ASC_NODE":347.0158,"ARG_OF_PERICENTER":98.0372,"MEAN_ANOMALY":262.0914,"EPHEMERIS_TYPE":0,"CLASSIFICATION_TYPE":"U","NORAD_CAT_ID":50486,"ELEMENT_SET_NO":999,"REV_AT_EPOCH":21396,"BSTAR":0.00048365,"MEAN_MOTION_DOT":2.04e-06,"MEAN_MOTION_DDOT":0.0},{"OBJECT_NAME":"ONEWEB-0407","OBJECT_ID":"2021-132U","EPOCH":"2026-04-20T01:41:28.395456","MEAN_MOTION":13.18685678,"ECCENTRICITY":0.0001965,"INCLINATION":87.922,"RA_OF_ASC_NODE":347.0046,"ARG_OF_PERICENTER":79.4945,"MEAN_ANOMALY":280.6409,"EPHEMERIS_TYPE":0,"CLASSIFICATION_TYPE":"U","NORAD_CAT_ID":50487,"ELEMENT_SET_NO":999,"REV_AT_EPOCH":21390,"BSTAR":0.0004575,"MEAN_MOTION_DOT":1.93e-06,"MEAN_MOTION_DDOT":0.0},{"OBJECT_NAME":"ONEWEB-0409","OBJECT_ID":"2021-132V","EPOCH":"2026-04-20T04:36:00.103104","MEAN_MOTION":13.11416426,"ECCENTRICITY":0.0001566,"INCLINATION":87.8925,"RA_OF_ASC_NODE":32.5807,"ARG_OF_PERICENTER":80.8105,"MEAN_ANOMALY":279.32,"EPHEMERIS_TYPE":0,"CLASSIFICATION_TYPE":"U","NORAD_CAT_ID":50488,"ELEMENT_SET_NO":999,"REV_AT_EPOCH":20798,"BSTAR":-0.0013963,"MEAN_MOTION_DOT":-4.82e-06,"MEAN_MOTION_DDOT":0.0},{"OBJECT_NAME":"ONEWEB-0412","OBJECT_ID":"2021-132W","EPOCH":"2026-04-20T03:14:06.669888","MEAN_MOTION":13.18685103,"ECCENTRICITY":0.0002065,"INCLINATION":87.9206,"RA_OF_ASC_NODE":347.0026,"ARG_OF_PERICENTER":86.1039,"MEAN_ANOMALY":274.033,"EPHEMERIS_TYPE":0,"CLASSIFICATION_TYPE":"U","NORAD_CAT_ID":50489,"ELEMENT_SET_NO":999,"REV_AT_EPOCH":21400,"BSTAR":0.00021075,"MEAN_MOTION_DOT":9.6e-07,"MEAN_MOTION_DDOT":0.0},{"OBJECT_NAME":"ONEWEB-0413","OBJECT_ID":"2021-132X","EPOCH":"2026-04-20T01:31:58.743840","MEAN_MOTION":13.18685016,"ECCENTRICITY":0.0002078,"INCLINATION":87.9203,"RA_OF_ASC_NODE":347.0191,"ARG_OF_PERICENTER":82.5609,"MEAN_ANOMALY":277.5759,"EPHEMERIS_TYPE":0,"CLASSIFICATION_TYPE":"U","NORAD_CAT_ID":50490,"ELEMENT_SET_NO":999,"REV_AT_EPOCH":21393,"BSTAR":0.00026461000000000003,"MEAN_MOTION_DOT":1.17e-06,"MEAN_MOTION_DDOT":0.0},{"OBJECT_NAME":"ONEWEB-0414","OBJECT_ID":"2021-132Y","EPOCH":"2026-04-20T04:49:07.610592","MEAN_MOTION":13.18684906,"ECCENTRICITY":0.0001901,"INCLINATION":87.9214,"RA_OF_ASC_NODE":346.9679,"ARG_OF_PERICENTER":86.7628,"MEAN_ANOMALY":273.3721,"EPHEMERIS_TYPE":0,"CLASSIFICATION_TYPE":"U","NORAD_CAT_ID":50491,"ELEMENT_SET_NO":999,"REV_AT_EPOCH":21398,"BSTAR":0.000283,"MEAN_MOTION_DOT":1.24e-06,"MEAN_MOTION_DDOT":0.0},{"OBJECT_NAME":"ONEWEB-0417","OBJECT_ID":"2021-132Z","EPOCH":"2026-04-20T03:11:44.109024","MEAN_MOTION":13.18684201,"ECCENTRICITY":0.0001611,"INCLINATION":87.9204,"RA_OF_ASC_NODE":347.0062,"ARG_OF_PERICENTER":86.5387,"MEAN_ANOMALY":273.5929,"EPHEMERIS_TYPE":0,"CLASSIFICATION_TYPE":"U","NORAD_CAT_ID":50492,"ELEMENT_SET_NO":999,"REV_AT_EPOCH":21395,"BSTAR":2.4063000000000003e-05,"MEAN_MOTION_DOT":2.2e-07,"MEAN_MOTION_DDOT":0.0},{"OBJECT_NAME":"ONEWEB-0418","OBJECT_ID":"2021-132AA","EPOCH":"2026-04-20T01:36:30.885696","MEAN_MOTION":13.18685902,"ECCENTRICITY":0.0001436,"INCLINATION":87.9219,"RA_OF_ASC_NODE":347.0131,"ARG_OF_PERICENTER":90.0082,"MEAN_ANOMALY":270.1215,"EPHEMERIS_TYPE":0,"CLASSIFICATION_TYPE":"U","NORAD_CAT_ID":50493,"ELEMENT_SET_NO":999,"REV_AT_EPOCH":21400,"BSTAR":-0.0005685400000000001,"MEAN_MOTION_DOT":-2.11e-06,"MEAN_MOTION_DDOT":0.0},{"OBJECT_NAME":"ONEWEB-0419","OBJECT_ID":"2021-132AB","EPOCH":"2026-04-20T02:02:49.933824","MEAN_MOTION":13.18686313,"ECCENTRICITY":0.0001505,"INCLINATION":87.9219,"RA_OF_ASC_NODE":347.0093,"ARG_OF_PERICENTER":78.0215,"MEAN_ANOMALY":282.1086,"EPHEMERIS_TYPE":0,"CLASSIFICATION_TYPE":"U","NORAD_CAT_ID":50494,"ELEMENT_SET_NO":999,"REV_AT_EPOCH":21392,"BSTAR":3.6418e-05,"MEAN_MOTION_DOT":2.7e-07,"MEAN_MOTION_DDOT":0.0},{"OBJECT_NAME":"ONEWEB-0420","OBJECT_ID":"2021-132AC","EPOCH":"2026-04-20T04:51:29.089728","MEAN_MOTION":13.18684841,"ECCENTRICITY":0.0001958,"INCLINATION":87.9213,"RA_OF_ASC_NODE":346.9943,"ARG_OF_PERICENTER":77.7552,"MEAN_ANOMALY":282.38,"EPHEMERIS_TYPE":0,"CLASSIFICATION_TYPE":"U","NORAD_CAT_ID":50495,"ELEMENT_SET_NO":999,"REV_AT_EPOCH":21393,"BSTAR":-2.6071e-06,"MEAN_MOTION_DOT":1.2e-07,"MEAN_MOTION_DDOT":0.0},{"OBJECT_NAME":"ONEWEB-0421","OBJECT_ID":"2021-132AD","EPOCH":"2026-04-20T04:42:00.411840","MEAN_MOTION":13.18685414,"ECCENTRICITY":0.0001927,"INCLINATION":87.9214,"RA_OF_ASC_NODE":346.9906,"ARG_OF_PERICENTER":92.9169,"MEAN_ANOMALY":267.2184,"EPHEMERIS_TYPE":0,"CLASSIFICATION_TYPE":"U","NORAD_CAT_ID":50496,"ELEMENT_SET_NO":999,"REV_AT_EPOCH":21397,"BSTAR":4.8274000000000006e-05,"MEAN_MOTION_DOT":3.2e-07,"MEAN_MOTION_DDOT":0.0},{"OBJECT_NAME":"ONEWEB-0424","OBJECT_ID":"2021-132AE","EPOCH":"2026-04-20T01:55:43.349376","MEAN_MOTION":13.18687703,"ECCENTRICITY":0.0001522,"INCLINATION":87.9217,"RA_OF_ASC_NODE":347.0094,"ARG_OF_PERICENTER":73.0023,"MEAN_ANOMALY":287.1276,"EPHEMERIS_TYPE":0,"CLASSIFICATION_TYPE":"U","NORAD_CAT_ID":50497,"ELEMENT_SET_NO":999,"REV_AT_EPOCH":21398,"BSTAR":0.0006186000000000001,"MEAN_MOTION_DOT":2.57e-06,"MEAN_MOTION_DDOT":0.0},{"OBJECT_NAME":"ONEWEB-0426","OBJECT_ID":"2021-132AF","EPOCH":"2026-04-20T04:37:10.995168","MEAN_MOTION":13.18690283,"ECCENTRICITY":0.0001726,"INCLINATION":87.9214,"RA_OF_ASC_NODE":346.9791,"ARG_OF_PERICENTER":106.4245,"MEAN_ANOMALY":253.7077,"EPHEMERIS_TYPE":0,"CLASSIFICATION_TYPE":"U","NORAD_CAT_ID":50498,"ELEMENT_SET_NO":999,"REV_AT_EPOCH":21394,"BSTAR":0.00017085,"MEAN_MOTION_DOT":8e-07,"MEAN_MOTION_DDOT":0.0}]